[{"OBJECT_NAME":"GPS BIIR-08","OBJECT_ID":"2003-005A","EPOCH":"2026-04-05T18:17:56.651136","MEAN_MOTION":2.00564553,"ECCENTRICITY":0.014845,"INCLINATION":54.8986,"RA_OF_ASC_NODE":217.8451,"ARG_OF_PERICENTER":52.8937,"MEAN_ANOMALY":272.6776,"EPHEMERIS_TYPE":0,"CLASSIFICATION_TYPE":"U","NORAD_CAT_ID":27663,"ELEMENT_SET_NO":999,"REV_AT_EPOCH":16985,"BSTAR":0,"MEAN_MOTION_DOT":8.0e-8,"MEAN_MOTION_DDOT":0},{"OBJECT_NAME":"GPS BIIR-11","OBJECT_ID":"2004-009A","EPOCH":"2026-04-03T08:14:52.746720","MEAN_MOTION":2.00557195,"ECCENTRICITY":0.01124448,"INCLINATION":54.8926,"RA_OF_ASC_NODE":278.7093,"ARG_OF_PERICENTER":169.9755,"MEAN_ANOMALY":4.1137,"EPHEMERIS_TYPE":0,"CLASSIFICATION_TYPE":"U","NORAD_CAT_ID":28190,"ELEMENT_SET_NO":999,"REV_AT_EPOCH":16144,"BSTAR":0,"MEAN_MOTION_DOT":-3.5e-7,"MEAN_MOTION_DDOT":0},{"OBJECT_NAME":"GPS BIIR-13","OBJECT_ID":"2004-045A","EPOCH":"2026-04-05T18:06:05.393376","MEAN_MOTION":2.0057515,"ECCENTRICITY":0.0170337,"INCLINATION":55.1768,"RA_OF_ASC_NODE":327.8146,"ARG_OF_PERICENTER":314.0563,"MEAN_ANOMALY":225.7789,"EPHEMERIS_TYPE":0,"CLASSIFICATION_TYPE":"U","NORAD_CAT_ID":28474,"ELEMENT_SET_NO":999,"REV_AT_EPOCH":15697,"BSTAR":0,"MEAN_MOTION_DOT":-8.2e-7,"MEAN_MOTION_DDOT":0},{"OBJECT_NAME":"GPS BIIR-14M","OBJECT_ID":"2005-038A","EPOCH":"2026-04-05T19:28:19.968672","MEAN_MOTION":2.00570845,"ECCENTRICITY":0.0128061,"INCLINATION":54.9383,"RA_OF_ASC_NODE":276.0964,"ARG_OF_PERICENTER":295.7126,"MEAN_ANOMALY":245.56,"EPHEMERIS_TYPE":0,"CLASSIFICATION_TYPE":"U","NORAD_CAT_ID":28874,"ELEMENT_SET_NO":999,"REV_AT_EPOCH":15038,"BSTAR":0,"MEAN_MOTION_DOT":-1.4e-7,"MEAN_MOTION_DDOT":0},{"OBJECT_NAME":"METEOSAT-9 (MSG-2)","OBJECT_ID":"2005-049B","EPOCH":"2026-04-05T12:57:38.736288","MEAN_MOTION":1.00277791,"ECCENTRICITY":7.78e-5,"INCLINATION":9.199,"RA_OF_ASC_NODE":54.8663,"ARG_OF_PERICENTER":50.0692,"MEAN_ANOMALY":329.0058,"EPHEMERIS_TYPE":0,"CLASSIFICATION_TYPE":"U","NORAD_CAT_ID":28912,"ELEMENT_SET_NO":999,"REV_AT_EPOCH":627,"BSTAR":0,"MEAN_MOTION_DOT":1.27e-6,"MEAN_MOTION_DDOT":0},{"OBJECT_NAME":"GPS BIIR-16M","OBJECT_ID":"2006-052A","EPOCH":"2026-04-05T14:57:21.936384","MEAN_MOTION":2.0055389,"ECCENTRICITY":0.0087069,"INCLINATION":54.9491,"RA_OF_ASC_NODE":216.8814,"ARG_OF_PERICENTER":89.945,"MEAN_ANOMALY":271.0399,"EPHEMERIS_TYPE":0,"CLASSIFICATION_TYPE":"U","NORAD_CAT_ID":29601,"ELEMENT_SET_NO":999,"REV_AT_EPOCH":14195,"BSTAR":0,"MEAN_MOTION_DOT":8.0e-8,"MEAN_MOTION_DDOT":0},{"OBJECT_NAME":"GPS BIIR-17M","OBJECT_ID":"2007-047A","EPOCH":"2026-04-04T22:21:21.273408","MEAN_MOTION":2.00559152,"ECCENTRICITY":0.0164095,"INCLINATION":54.0414,"RA_OF_ASC_NODE":83.0831,"ARG_OF_PERICENTER":86.2491,"MEAN_ANOMALY":275.6217,"EPHEMERIS_TYPE":0,"CLASSIFICATION_TYPE":"U","NORAD_CAT_ID":32260,"ELEMENT_SET_NO":999,"REV_AT_EPOCH":13534,"BSTAR":0,"MEAN_MOTION_DOT":-1.3e-7,"MEAN_MOTION_DDOT":0},{"OBJECT_NAME":"GPS BIIR-18M","OBJECT_ID":"2007-062A","EPOCH":"2026-04-05T00:04:11.523360","MEAN_MOTION":2.00555625,"ECCENTRICITY":0.00339116,"INCLINATION":55.091,"RA_OF_ASC_NODE":277.0926,"ARG_OF_PERICENTER":161.3571,"MEAN_ANOMALY":17.5151,"EPHEMERIS_TYPE":0,"CLASSIFICATION_TYPE":"U","NORAD_CAT_ID":32384,"ELEMENT_SET_NO":999,"REV_AT_EPOCH":13404,"BSTAR":0,"MEAN_MOTION_DOT":-2.2e-7,"MEAN_MOTION_DDOT":0},{"OBJECT_NAME":"GOES 14","OBJECT_ID":"2009-033A","EPOCH":"2026-04-05T18:44:46.646016","MEAN_MOTION":1.00112185,"ECCENTRICITY":0.0001844,"INCLINATION":1.503,"RA_OF_ASC_NODE":83.9171,"ARG_OF_PERICENTER":299.1245,"MEAN_ANOMALY":274.7211,"EPHEMERIS_TYPE":0,"CLASSIFICATION_TYPE":"U","NORAD_CAT_ID":35491,"ELEMENT_SET_NO":999,"REV_AT_EPOCH":586,"BSTAR":0,"MEAN_MOTION_DOT":4.5e-7,"MEAN_MOTION_DDOT":0},{"OBJECT_NAME":"GOES 15","OBJECT_ID":"2010-008A","EPOCH":"2026-04-05T19:22:32.703744","MEAN_MOTION":1.00271609,"ECCENTRICITY":0.0003425,"INCLINATION":1.0872,"RA_OF_ASC_NODE":84.2709,"ARG_OF_PERICENTER":17.981,"MEAN_ANOMALY":85.7619,"EPHEMERIS_TYPE":0,"CLASSIFICATION_TYPE":"U","NORAD_CAT_ID":36411,"ELEMENT_SET_NO":999,"REV_AT_EPOCH":5891,"BSTAR":0,"MEAN_MOTION_DOT":2.4e-7,"MEAN_MOTION_DDOT":0},{"OBJECT_NAME":"GSAT0101 (GALILEO-PFM)","OBJECT_ID":"2011-060A","EPOCH":"2026-04-05T02:41:11.847552","MEAN_MOTION":1.70475898,"ECCENTRICITY":0.00040961,"INCLINATION":57.0168,"RA_OF_ASC_NODE":343.7451,"ARG_OF_PERICENTER":18.3596,"MEAN_ANOMALY":341.7021,"EPHEMERIS_TYPE":0,"CLASSIFICATION_TYPE":"U","NORAD_CAT_ID":37846,"ELEMENT_SET_NO":999,"REV_AT_EPOCH":8987,"BSTAR":0,"MEAN_MOTION_DOT":-9.3e-7,"MEAN_MOTION_DDOT":0},{"OBJECT_NAME":"GSAT0102 (GALILEO-FM2)","OBJECT_ID":"2011-060B","EPOCH":"2026-04-04T03:50:30.890400","MEAN_MOTION":1.70475892,"ECCENTRICITY":0.00048118,"INCLINATION":57.0179,"RA_OF_ASC_NODE":343.7712,"ARG_OF_PERICENTER":9.1881,"MEAN_ANOMALY":172.2383,"EPHEMERIS_TYPE":0,"CLASSIFICATION_TYPE":"U","NORAD_CAT_ID":37847,"ELEMENT_SET_NO":999,"REV_AT_EPOCH":8986,"BSTAR":0,"MEAN_MOTION_DOT":-9.5e-7,"MEAN_MOTION_DDOT":0},{"OBJECT_NAME":"LUCH 5A","OBJECT_ID":"2011-074B","EPOCH":"2026-04-05T16:57:41.953248","MEAN_MOTION":1.00271539,"ECCENTRICITY":0.0003142,"INCLINATION":8.5703,"RA_OF_ASC_NODE":74.8592,"ARG_OF_PERICENTER":287.6374,"MEAN_ANOMALY":252.8557,"EPHEMERIS_TYPE":0,"CLASSIFICATION_TYPE":"U","NORAD_CAT_ID":37951,"ELEMENT_SET_NO":999,"REV_AT_EPOCH":5232,"BSTAR":0,"MEAN_MOTION_DOT":-4.6e-7,"MEAN_MOTION_DDOT":0},{"OBJECT_NAME":"METEOSAT-10 (MSG-3)","OBJECT_ID":"2012-035B","EPOCH":"2026-04-05T17:52:44.174208","MEAN_MOTION":1.0027364,"ECCENTRICITY":0.00024,"INCLINATION":4.5007,"RA_OF_ASC_NODE":61.319,"ARG_OF_PERICENTER":297.4752,"MEAN_ANOMALY":103.5053,"EPHEMERIS_TYPE":0,"CLASSIFICATION_TYPE":"U","NORAD_CAT_ID":38552,"ELEMENT_SET_NO":999,"REV_AT_EPOCH":5013,"BSTAR":0,"MEAN_MOTION_DOT":-3.0e-8,"MEAN_MOTION_DDOT":0},{"OBJECT_NAME":"SARSAT 13 (METOP-B)","OBJECT_ID":"2012-049A","EPOCH":"2026-04-05T19:51:05.004000","MEAN_MOTION":14.21428016,"ECCENTRICITY":0.0002491,"INCLINATION":98.6583,"RA_OF_ASC_NODE":148.7445,"ARG_OF_PERICENTER":168.4775,"MEAN_ANOMALY":191.6459,"EPHEMERIS_TYPE":0,"CLASSIFICATION_TYPE":"U","NORAD_CAT_ID":38771,"ELEMENT_SET_NO":999,"REV_AT_EPOCH":70298,"BSTAR":9.3537e-5,"MEAN_MOTION_DOT":1.61e-6,"MEAN_MOTION_DDOT":0},{"OBJECT_NAME":"GPS BIIF-3","OBJECT_ID":"2012-053A","EPOCH":"2026-04-05T12:36:39.445056","MEAN_MOTION":2.00566362,"ECCENTRICITY":0.0177431,"INCLINATION":53.5703,"RA_OF_ASC_NODE":146.5768,"ARG_OF_PERICENTER":64.9866,"MEAN_ANOMALY":296.9263,"EPHEMERIS_TYPE":0,"CLASSIFICATION_TYPE":"U","NORAD_CAT_ID":38833,"ELEMENT_SET_NO":999,"REV_AT_EPOCH":9798,"BSTAR":0,"MEAN_MOTION_DOT":2.1e-7,"MEAN_MOTION_DDOT":0},{"OBJECT_NAME":"GSAT0103 (GALILEO-FM3)","OBJECT_ID":"2012-055A","EPOCH":"2026-04-04T13:34:39.647424","MEAN_MOTION":1.70473519,"ECCENTRICITY":0.00059107,"INCLINATION":55.7599,"RA_OF_ASC_NODE":103.564,"ARG_OF_PERICENTER":291.5496,"MEAN_ANOMALY":68.4144,"EPHEMERIS_TYPE":0,"CLASSIFICATION_TYPE":"U","NORAD_CAT_ID":38857,"ELEMENT_SET_NO":999,"REV_AT_EPOCH":8375,"BSTAR":0,"MEAN_MOTION_DOT":3.0e-7,"MEAN_MOTION_DDOT":0}]
